{
  "type": "FeatureCollection",
  "features": [
    {
      "type": "Feature",
      "properties": {
        "norad_id": 35433,
        "name": "COSMOS 2251 DEB",
        "group": "cosmos-2251-debris",
        "lat": 40.39842901643933,
        "lon": -12.733607622969927,
        "alt_km": 754.802859013992,
        "timestamp": "2025-12-15T14:57:58.207728+00:00",
        "meta_object_name": "COSMOS 2251 DEB",
        "meta_object_id": "1993-036AKB",
        "meta_epoch": "2025-12-10T18:27:52.031808",
        "meta_mean_motion": 14.34742553,
        "meta_eccentricity": 0.00254013,
        "meta_inclination": 74.0339,
        "meta_ra_of_asc_node": 342.0559,
        "meta_arg_of_pericenter": 37.4572,
        "meta_mean_anomaly": 142.4072,
        "meta_ephemeris_type": 0,
        "meta_classification_type": "U",
        "meta_norad_cat_id": 35433,
        "meta_element_set_no": 999,
        "meta_rev_at_epoch": 86552,
        "meta_bstar": 0.00041847558,
        "meta_mean_motion_dot": 1.164e-05,
        "meta_mean_motion_ddot": 0,
        "tle_line1": "1 35433U 93036AKB 25344.76935222  .00001164  00000+0  41848-3 0  9992",
        "tle_line2": "2 35433  74.0339 342.0559 0025401  37.4572 142.4072 14.34742553865528"
      },
      "geometry": {
        "type": "Point",
        "coordinates": [
          -12.733607622969927,
          40.39842901643933
        ]
      }
    },
    {
      "type": "Feature",
      "properties": {
        "norad_id": 35434,
        "name": "COSMOS 2251 DEB",
        "group": "cosmos-2251-debris",
        "lat": -40.67956069619614,
        "lon": 42.66020739471648,
        "alt_km": 776.7198280848288,
        "timestamp": "2025-12-15T14:57:58.207737+00:00",
        "meta_object_name": "COSMOS 2251 DEB",
        "meta_object_id": "1993-036AKC",
        "meta_epoch": "2025-12-13T21:29:58.278624",
        "meta_mean_motion": 14.25692247,
        "meta_eccentricity": 0.00874643,
        "meta_inclination": 74.0404,
        "meta_ra_of_asc_node": 211.5388,
        "meta_arg_of_pericenter": 282.0357,
        "meta_mean_anomaly": 77.0999,
        "meta_ephemeris_type": 0,
        "meta_classification_type": "U",
        "meta_norad_cat_id": 35434,
        "meta_element_set_no": 999,
        "meta_rev_at_epoch": 86134,
        "meta_bstar": 0.00076141319,
        "meta_mean_motion_dot": 1.854e-05,
        "meta_mean_motion_ddot": 0,
        "tle_line1": "1 35434U 93036AKC 25347.89581341  .00001854  00000+0  76141-3 0  9999",
        "tle_line2": "2 35434  74.0404 211.5388 0087464 282.0357  77.0999 14.25692247861349"
      },
      "geometry": {
        "type": "Point",
        "coordinates": [
          42.66020739471648,
          -40.67956069619614
        ]
      }
    },
    {
      "type": "Feature",
      "properties": {
        "norad_id": 35435,
        "name": "COSMOS 2251 DEB",
        "group": "cosmos-2251-debris",
        "lat": -60.235614288525355,
        "lon": -51.51368039896423,
        "alt_km": 637.0945451297275,
        "timestamp": "2025-12-15T14:57:58.207746+00:00",
        "meta_object_name": "COSMOS 2251 DEB",
        "meta_object_id": "1993-036AKD",
        "meta_epoch": "2025-12-12T14:28:49.329408",
        "meta_mean_motion": 14.7846616,
        "meta_eccentricity": 0.00079831,
        "meta_inclination": 74.0098,
        "meta_ra_of_asc_node": 104.3344,
        "meta_arg_of_pericenter": 198.3859,
        "meta_mean_anomaly": 176.7731,
        "meta_ephemeris_type": 0,
        "meta_classification_type": "U",
        "meta_norad_cat_id": 35435,
        "meta_element_set_no": 999,
        "meta_rev_at_epoch": 87537,
        "meta_bstar": 0.0033882672,
        "meta_mean_motion_dot": 0.00024794,
        "meta_mean_motion_ddot": 0,
        "tle_line1": "1 35435U 93036AKD 25346.60334872  .00024794  00000+0  33883-2 0  9996",
        "tle_line2": "2 35435  74.0098 104.3344 0007983 198.3859 176.7731 14.78466160875374"
      },
      "geometry": {
        "type": "Point",
        "coordinates": [
          -51.51368039896423,
          -60.235614288525355
        ]
      }
    },
    {
      "type": "Feature",
      "properties": {
        "norad_id": 35439,
        "name": "COSMOS 2251 DEB",
        "group": "cosmos-2251-debris",
        "lat": 6.522819262653207,
        "lon": 131.6762667092938,
        "alt_km": 851.826295268088,
        "timestamp": "2025-12-15T14:57:58.207756+00:00",
        "meta_object_name": "COSMOS 2251 DEB",
        "meta_object_id": "1993-036AKH",
        "meta_epoch": "2025-12-14T03:35:04.308288",
        "meta_mean_motion": 13.92816223,
        "meta_eccentricity": 0.02421462,
        "meta_inclination": 74.018,
        "meta_ra_of_asc_node": 132.3236,
        "meta_arg_of_pericenter": 301.3061,
        "meta_mean_anomaly": 233.8403,
        "meta_ephemeris_type": 0,
        "meta_classification_type": "U",
        "meta_norad_cat_id": 35439,
        "meta_element_set_no": 999,
        "meta_rev_at_epoch": 83980,
        "meta_bstar": 0.0018477357,
        "meta_mean_motion_dot": 3.02e-05,
        "meta_mean_motion_ddot": 0,
        "tle_line1": "1 35439U 93036AKH 25348.14935542  .00003020  00000+0  18477-2 0  9993",
        "tle_line2": "2 35439  74.0180 132.3236 0242146 301.3061 233.8403 13.92816223839807"
      },
      "geometry": {
        "type": "Point",
        "coordinates": [
          131.6762667092938,
          6.522819262653207
        ]
      }
    },
    {
      "type": "Feature",
      "properties": {
        "norad_id": 35440,
        "name": "COSMOS 2251 DEB",
        "group": "cosmos-2251-debris",
        "lat": 34.37285550483744,
        "lon": 10.733888315968299,
        "alt_km": 708.4723916788716,
        "timestamp": "2025-12-15T14:57:58.207765+00:00",
        "meta_object_name": "COSMOS 2251 DEB",
        "meta_object_id": "1993-036AKJ",
        "meta_epoch": "2025-12-10T08:26:45.842208",
        "meta_mean_motion": 14.68793955,
        "meta_eccentricity": 0.00692048,
        "meta_inclination": 74.0146,
        "meta_ra_of_asc_node": 212.2531,
        "meta_arg_of_pericenter": 353.6751,
        "meta_mean_anomaly": 6.3537,
        "meta_ephemeris_type": 0,
        "meta_classification_type": "U",
        "meta_norad_cat_id": 35440,
        "meta_element_set_no": 999,
        "meta_rev_at_epoch": 68730,
        "meta_bstar": 0.0006737672,
        "meta_mean_motion_dot": 4.046e-05,
        "meta_mean_motion_ddot": 0,
        "tle_line1": "1 35440U 93036AKJ 25344.35191947  .00004046  00000+0  67377-3 0  9990",
        "tle_line2": "2 35440  74.0146 212.2531 0069204 353.6751   6.3537 14.68793955687302"
      },
      "geometry": {
        "type": "Point",
        "coordinates": [
          10.733888315968299,
          34.37285550483744
        ]
      }
    },
    {
      "type": "Feature",
      "properties": {
        "norad_id": 35441,
        "name": "COSMOS 2251 DEB",
        "group": "cosmos-2251-debris",
        "lat": 31.333274446764978,
        "lon": -57.421244290515006,
        "alt_km": 706.1258538383372,
        "timestamp": "2025-12-15T14:57:58.207774+00:00",
        "meta_object_name": "COSMOS 2251 DEB",
        "meta_object_id": "1993-036AKK",
        "meta_epoch": "2025-12-14T14:11:33.565344",
        "meta_mean_motion": 14.62633199,
        "meta_eccentricity": 0.00366471,
        "meta_inclination": 74.1346,
        "meta_ra_of_asc_node": 294.5736,
        "meta_arg_of_pericenter": 190.744,
        "meta_mean_anomaly": 169.2949,
        "meta_ephemeris_type": 0,
        "meta_classification_type": "U",
        "meta_norad_cat_id": 35441,
        "meta_element_set_no": 999,
        "meta_rev_at_epoch": 87457,
        "meta_bstar": 0.0013427276,
        "meta_mean_motion_dot": 6.87e-05,
        "meta_mean_motion_ddot": 0,
        "tle_line1": "1 35441U 93036AKK 25348.59136071  .00006870  00000+0  13427-2 0  9991",
        "tle_line2": "2 35441  74.1346 294.5736 0036647 190.7440 169.2949 14.62633199874576"
      },
      "geometry": {
        "type": "Point",
        "coordinates": [
          -57.421244290515006,
          31.333274446764978
        ]
      }
    },
    {
      "type": "Feature",
      "properties": {
        "norad_id": 35442,
        "name": "COSMOS 2251 DEB",
        "group": "cosmos-2251-debris",
        "lat": 35.910577609377775,
        "lon": -98.55794600285482,
        "alt_km": 611.0490010585072,
        "timestamp": "2025-12-15T14:57:58.207783+00:00",
        "meta_object_name": "COSMOS 2251 DEB",
        "meta_object_id": "1993-036AKL",
        "meta_epoch": "2025-12-14T14:04:04.076256",
        "meta_mean_motion": 14.84537177,
        "meta_eccentricity": 0.00036244,
        "meta_inclination": 74.0267,
        "meta_ra_of_asc_node": 95.4719,
        "meta_arg_of_pericenter": 79.8842,
        "meta_mean_anomaly": 280.2745,
        "meta_ephemeris_type": 0,
        "meta_classification_type": "U",
        "meta_norad_cat_id": 35442,
        "meta_element_set_no": 999,
        "meta_rev_at_epoch": 87380,
        "meta_bstar": 0.0019773818,
        "meta_mean_motion_dot": 0.00016689,
        "meta_mean_motion_ddot": 0,
        "tle_line1": "1 35442U 93036AKL 25348.58615829  .00016689  00000+0  19774-2 0  9994",
        "tle_line2": "2 35442  74.0267  95.4719 0003624  79.8842 280.2745 14.84537177873805"
      },
      "geometry": {
        "type": "Point",
        "coordinates": [
          -98.55794600285482,
          35.910577609377775
        ]
      }
    }
  ]
}